BEIDOU-2 IGSO-1 (C06)   
1 36828U 10036A   25247.79105115 -.00000153  00000+0  00000+0 0  9994
2 36828  54.2793 165.5477 0048496 216.4459 352.2256  1.00253955 55236
BEIDOU-2 G4 (C04)       
1 37210U 10057A   25249.26700029 -.00000113  00000+0  00000+0 0  9998
2 37210   2.9357  70.2494 0007651 167.7542   3.8043  1.00271709 54440
BEIDOU-2 IGSO-2 (C07)   
1 37256U 10068A   25249.32354818 -.00000153  00000+0  00000+0 0  9992
2 37256  48.0598 275.3488 0048713 216.4614  77.5964  1.00263091 53944
BEIDOU-2 IGSO-3 (C08)   
1 37384U 11013A   25247.86549582 -.00000139  00000+0  00000+0 0  9990
2 37384  62.0098  42.8563 0036138 178.8133 179.4487  1.00295018 52791
BEIDOU-2 IGSO-4 (C09)   
1 37763U 11038A   25248.48755211 -.00000089  00000+0  00000+0 0  9999
2 37763  54.5811 168.2308 0144853 230.8002 215.1849  1.00261624 51794
BEIDOU-2 IGSO-5 (C10)   
1 37948U 11073A   25249.04003097 -.00000088  00000+0  00000+0 0  9993
2 37948  48.1979 275.0595 0110449 221.4513 319.3171  1.00269017 50287
BEIDOU-2 G5 (C05)       
1 38091U 12008A   25249.17556657  .00000055  00000+0  00000+0 0  9994
2 38091   2.8592  71.0440 0006215 232.0569 164.3463  1.00274398 49527
BEIDOU-2 M3 (C11)       
1 38250U 12018A   25245.37927487 -.00000052  00000+0  00000+0 0  9991
2 38250  56.0022 314.5653 0023644 266.3351  93.4627  1.86233758 90583
BEIDOU-2 M4 (C12)       
1 38251U 12018B   25248.53376231 -.00000034  00000+0  00000+0 0  9998
2 38251  55.9021 313.6965 0014765 265.8203  94.0893  1.86232043 90646
BEIDOU-2 M6 (C14)       
1 38775U 12050B   25247.17055443  .00000023  00000+0  00000+0 0  9990
2 38775  56.2900  72.3688 0011392 357.6524   2.4103  1.86231081 87988
BEIDOU-2 G6 (C02)       
1 38953U 12059A   25249.10919126 -.00000177  00000+0  00000+0 0  9990
2 38953   3.6935  76.4978 0006720 317.5739  74.7321  1.00272682 47066
BEIDOU-3S IGSO-1S (C31) 
1 40549U 15019A   25248.61144797 -.00000124  00000+0  00000+0 0  9994
2 40549  49.7343 298.8928 0041335 196.1536 163.2906  1.00260459 38215
BEIDOU-3S M2S (C58)     
1 40748U 15037A   25249.27495957 -.00000031  00000+0  00000+0 0  9992
2 40748  55.1210 311.8104 0012028 253.0845 106.8641  1.86229222 68832
BEIDOU-3S M1S (C57)     
1 40749U 15037B   25244.68604791 -.00000053  00000+0  00000+0 0  9995
2 40749  55.1214 311.9587 0002350   0.1593 359.9084  1.86254037 68756
BEIDOU-3S IGSO-2S (C56) 
1 40938U 15053A   25248.50858523 -.00000072  00000+0  00000+0 0  9993
2 40938  49.6657 262.1671 0062289 189.5260 169.7789  1.00292603 36498
BEIDOU-2 IGSO-6 (C13)   
1 41434U 16021A   25248.89709013 -.00000126  00000+0  00000+0 0  9992
2 41434  59.8298  40.8759 0055909 227.3551 135.7105  1.00272279 34633
BEIDOU-2 G7 (C03)       
1 41586U 16037A   25249.25720692 -.00000355  00000+0  00000+0 0  9998
2 41586   1.5132  66.3772 0005674 352.4843 129.9112  1.00271502  4041
BEIDOU-3 M1 (C19)       
1 43001U 17069A   25249.08393102  .00000029  00000+0  00000+0 0  9998
2 43001  56.4405  72.4597 0007340 318.4838  41.5271  1.86231294 53315
BEIDOU-3 M2 (C20)       
1 43002U 17069B   25246.87430912  .00000022  00000+0  00000+0 0  9997
2 43002  56.4384  72.5686 0006346 356.4016   3.6619  1.86230913 53263
BEIDOU-3 M7 (C27)       
1 43107U 18003A   25246.08177009 -.00000044  00000+0  00000+0 0  9995
2 43107  54.5821 312.3157 0003010  98.2217 261.8832  1.86232601 52003
BEIDOU-3 M8 (C28)       
1 43108U 18003B   25247.09976211 -.00000038  00000+0  00000+0 0  9993
2 43108  54.5741 312.2636 0004504 254.5766 105.4478  1.86231018 52034
BEIDOU-3 M4 (C22)       
1 43207U 18018A   25248.07824831  .00000028  00000+0  00000+0 0  9996
2 43207  56.3977  72.5667 0005873  35.9272 324.1809  1.86231271 51430
BEIDOU-3 M3 (C21)       
1 43208U 18018B   25248.14482650  .00000028  00000+0  00000+0 0  9994
2 43208  56.3978  72.5685 0005600 341.1333  18.9145  1.86231234 51430
BEIDOU-3 M9 (C29)       
1 43245U 18029A   25246.75061703 -.00000035  00000+0  00000+0 0  9993
2 43245  54.4526 309.9564 0001941 230.3699 129.6876  1.86232834 50561
BEIDOU-3 M10 (C30)      
1 43246U 18029B   25246.14785203 -.00000039  00000+0  00000+0 0  9999
2 43246  54.4505 310.0039 0002556   4.3164 355.7585  1.86229199 50534
BEIDOU-2 IGSO-7 (C16)   
1 43539U 18057A   25248.68650163 -.00000163  00000+0  00000+0 0  9990
2 43539  55.1701 165.5314 0092415 236.6181 301.5631  1.00286929 26271
BEIDOU-3 M5 (C23)       
1 43581U 18062A   25248.52038765  .00000010  00000+0  00000+0 0  9994
2 43581  54.0967 191.9832 0004496 296.4984  63.4266  1.86228663 48339
BEIDOU-3 M6 (C24)       
1 43582U 18062B   25248.92098314  .00000011  00000+0  00000+0 0  9996
2 43582  54.0964 191.9589 0005619  17.9736 342.0171  1.86229706 48346
BEIDOU-3 M12 (C26)      
1 43602U 18067A   25248.85769587  .00000010  00000+0  00000+0 0  9992
2 43602  54.1900 190.6830 0007962  28.7994 331.2167  1.86227624 47828
BEIDOU-3 M11 (C25)      
1 43603U 18067B   25248.99195633  .00000010  00000+0  00000+0 0  9993
2 43603  54.1871 190.6426 0004662  15.9481 344.0389  1.86227124 47856
BEIDOU-3 M13 (C32)      
1 43622U 18072A   25247.87581197  .00000027  00000+0  00000+0 0  9998
2 43622  56.3709  72.0917 0004211 323.4624  36.5768  1.86231252 47340
BEIDOU-3 M14 (C33)      
1 43623U 18072B   25247.20432870  .00000024  00000+0  00000+0 0  9996
2 43623  56.3725  72.1078 0003752  17.4432 342.6374  1.86231306 47326
BEIDOU-3 M16 (C35)      
1 43647U 18078A   25245.21559505 -.00000046  00000+0  00000+0 0  9997
2 43647  54.3502 310.0710 0005812  24.4900 335.6075  1.86232380 46790
BEIDOU-3 M15 (C34)      
1 43648U 18078B   25245.88173650 -.00000041  00000+0  00000+0 0  9999
2 43648  54.3453 310.0489 0002457  35.3283 324.7598  1.86232405 46827
BEIDOU-3 G1 (C59)       
1 43683U 18085A   25249.26301361 -.00000279  00000+0  00000+0 0  9997
2 43683   2.8598 105.6216 0004287   4.1793 110.4495  1.00276743 25218
BEIDOU-3 M17 (C36)      
1 43706U 18093A   25248.23132044  .00000009  00000+0  00000+0 0  9998
2 43706  54.1803 191.9642 0009229 292.8604  97.2844  1.86228271 46234
BEIDOU-3 M18 (C37)      
1 43707U 18093B   25245.36313868  .00000016  00000+0  00000+0 0  9993
2 43707  54.1814 192.0532 0007749 322.6403  37.2842  1.86230050 46174
BEIDOU-3 IGSO-1 (C38)   
1 44204U 19023A   25248.83042884 -.00000184  00000+0  00000+0 0  9999
2 44204  58.2966  40.5873 0025018 215.1829 147.4367  1.00273608  4365
BEIDOU-2 G8 (C01)       
1 44231U 19027A   25249.26388028 -.00000249  00000+0  00000+0 0  9996
2 44231   1.4088  74.3055 0006411 267.3681 243.4632  1.00273753 23238
BEIDOU-3 IGSO-2 (C39)   
1 44337U 19035A   25247.72162405 -.00000168  00000+0  00000+0 0  9990
2 44337  55.2150 161.3740 0035070 208.8002 349.2936  1.00246134 22807
BEIDOU-3 M24 (C46)      
1 44542U 19061A   25248.65618066  .00000011  00000+0  00000+0 0  9995
2 44542  54.4078 192.3245 0008684   0.8697 359.1024  1.86229336 40492
BEIDOU-3 M23 (C45)      
1 44543U 19061B   25248.23610515  .00000010  00000+0  00000+0 0  9990
2 44543  54.4066 192.3072 0005704 345.5177   5.6084  1.86229497 40486
BEIDOU-3 IGSO-3 (C40)   
1 44709U 19073A   25247.50261164 -.00000130  00000+0  00000+0 0  9992
2 44709  55.2900 283.9854 0045719 191.3124 168.6978  1.00274294 21594
BEIDOU-3 M22 (C44)      
1 44793U 19078A   25246.34982716 -.00000038  00000+0  00000+0 0  9991
2 44793  54.1957 309.9089 0004537  32.6509 327.4504  1.86232254 39305
BEIDOU-3 M21 (C43)      
1 44794U 19078B   25247.02213959 -.00000034  00000+0  00000+0 0  9990
2 44794  54.1687 309.8523 0002598  18.8605 341.2245  1.86227795 39328
BEIDOU-3 M19 (C41)      
1 44864U 19090A   25248.07063811  .00000027  00000+0  00000+0 0  9999
2 44864  56.3051  72.2322 0015481 287.9700 249.9106  1.86231646 38928
BEIDOU-3 M20 (C42)      
1 44865U 19090B   25247.93748103  .00000027  00000+0  00000+0 0  9998
2 44865  56.3069  72.2708 0013050 303.7481 234.4811  1.86231597 38904
BEIDOU-3 G2 (C60)       
1 45344U 20017A   25249.10841126 -.00000142  00000+0  00000+0 0  9991
2 45344   2.8149  41.8751 0001025 317.8543 104.8084  1.00271898 20419
BEIDOU-3 G3 (C61)       
1 45807U 20040A   25249.25720692 -.00000355  00000+0  00000+0 0  9997
2 45807   1.7491  65.4605 0003906 335.3054 147.8862  1.00265793 19228
BEIDOU-3 G4 (C62)       
1 56564U 23066A   25249.19567332 -.00000114  00000+0  00000+0 0  9996
2 56564   1.0388 295.5802 0006278 208.1181  72.3470  1.00272060  8541
BEIDOU-3 M28 (C50)      
1 58654U 23207A   25247.63808515  .00000022  00000+0  00000+0 0  9990
2 58654  55.4952  71.9543 0000737  38.5572 321.5157  1.86229928 11526
BEIDOU-3 M26 (C48)      
1 58655U 23207B   25249.04741638  .00000025  00000+0  00000+0 0  9993
2 58655  55.4988  71.8927 0000884 239.3322 120.7249  1.86231531 11533
BEIDOU-3 M25 (C47)      
1 61186U 24168B   25247.27793194 -.00000037  00000+0  00000+0 0  9994
2 61186  54.7265 312.1683 0004722 279.0564  91.9363  1.86230192  6464
BEIDOU-3 M27 (C49)      
1 61187U 24168C   25247.59743449 -.00000036  00000+0  00000+0 0  9997
2 61187  54.7217 312.1412 0000961 306.2718  53.8330  1.86230224  3933
